CUBEBUG-2 (LO-74)       
1 39440U 13066AA  26068.83168078  .00006310  00000+0  59321-3 0  9991
2 39440  97.8812  17.5050 0058705 358.4894   1.6138 14.92958446662163
STARLINK-34662          
1 64799U 25150K   26068.57456654  .00003926  00000+0  33666-3 0  9998
2 64799  70.0016 134.5869 0003384 269.4870  90.5901 14.98328392 36508
